*******************************************************************************
Ephemeris / WWW_USER Mon Mar 26 19:52:14 2018 Pasadena, USA      / Horizons    
*******************************************************************************
Target body name: Ariel (701)                     {source: ura111}
Center body name: Uranus Barycenter (7)           {source: DE431mx}
Center-site name: BODY CENTER
*******************************************************************************
Start time      : A.D. 2000-Jan-01 00:00:00.0000 TDB
Stop  time      : A.D. 2001-Jan-01 00:00:00.0000 TDB
Step-size       : 7200 minutes
*******************************************************************************
Center geodetic : 0.00000000,0.00000000,0.0000000 {E-lon(deg),Lat(deg),Alt(km)}
Center cylindric: 0.00000000,0.00000000,0.0000000 {E-lon(deg),Dxy(km),Dz(km)}
Center radii    : (undefined)                                                  
Output units    : AU-D                                                         
Output type     : GEOMETRIC cartesian states
Output format   : 2 (position and velocity)
Reference frame : ICRF/J2000.0                                                 
Coordinate systm: Ecliptic and Mean Equinox of Reference Epoch                 
*******************************************************************************
JDTDB
   X     Y     Z
   VX    VY    VZ
*******************************************************************************
$$SOE
2451544.500000000 = A.D. 2000-Jan-01 00:00:00.0000 TDB 
   7.776026084581796E-04 -3.031505119285067E-05  1.011518064745452E-03
   2.434152384426025E-03 -7.966196447022363E-04 -1.888742768868071E-03
2451549.500000000 = A.D. 2000-Jan-06 00:00:00.0000 TDB 
   6.737852578383985E-04  2.449556932956627E-06  1.083363895760646E-03
   2.618504164568616E-03 -8.000194498508498E-04 -1.621671615129287E-03
2451554.500000000 = A.D. 2000-Jan-11 00:00:00.0000 TDB 
   5.642441904712379E-04  3.487217210773040E-05  1.143683163507141E-03
   2.775982262601247E-03 -7.955156157979713E-04 -1.340163747482128E-03
2451559.500000000 = A.D. 2000-Jan-16 00:00:00.0000 TDB 
   4.479896933012026E-04  6.716784630546198E-05  1.192473645655998E-03
   2.903936941138731E-03 -7.822665331041184E-04 -1.042334833262584E-03
2451564.500000000 = A.D. 2000-Jan-21 00:00:00.0000 TDB 
   3.278932618710286E-04  9.855280999254881E-05  1.228634996805595E-03
   3.002124446724130E-03 -7.612932896817821E-04 -7.359485779433455E-04
2451569.500000000 = A.D. 2000-Jan-26 00:00:00.0000 TDB 
   2.036436715165323E-04  1.291082554170083E-04  1.252240131376930E-03
   3.070773802907338E-03 -7.325434618233958E-04 -4.202474339914251E-04
2451574.500000000 = A.D. 2000-Jan-31 00:00:00.0000 TDB 
   7.827952663428421E-05  1.580955228071068E-04  1.262799150606376E-03
   3.105539451255674E-03 -6.958735875531185E-04 -1.010751507454462E-04
2451579.500000000 = A.D. 2000-Feb-05 00:00:00.0000 TDB 
  -4.943622093451141E-05  1.857964218448392E-04  1.260362770008020E-03
   3.110078353932151E-03 -6.521906369105818E-04  2.208152292492380E-04
2451584.500000000 = A.D. 2000-Feb-10 00:00:00.0000 TDB 
  -1.751833737882244E-04  2.112572648160913E-04  1.244899414109874E-03
   3.081145231959764E-03 -6.017023993097708E-04  5.387911519423515E-04
2451589.500000000 = A.D. 2000-Feb-15 00:00:00.0000 TDB 
  -2.992879432076886E-04  2.345602148359678E-04  1.216495828955377E-03
   3.021044417768170E-03 -5.451181184091859E-04  8.513988341767615E-04
2451594.500000000 = A.D. 2000-Feb-20 00:00:00.0000 TDB 
  -4.216280807196672E-04  2.557500156275797E-04  1.175644910324361E-03
   2.928700801027921E-03 -4.824493267045688E-04  1.156836262331253E-03
2451599.500000000 = A.D. 2000-Feb-25 00:00:00.0000 TDB 
  -5.375815579445744E-04  2.738131375878564E-04  1.122375773952875E-03
   2.807379972946143E-03 -4.153056957643253E-04  1.448695445620571E-03
2451604.500000000 = A.D. 2000-Mar-01 00:00:00.0000 TDB 
  -6.500257150166526E-04  2.894979970991600E-04  1.057523900983214E-03
   2.655160595155460E-03 -3.432641836530604E-04  1.726964120204329E-03
2451609.500000000 = A.D. 2000-Mar-06 00:00:00.0000 TDB 
  -7.541090576897657E-04  3.018848526903168E-04  9.821300320253835E-04
   2.477065979113280E-03 -2.682834454505186E-04  1.985482744120607E-03
2451614.500000000 = A.D. 2000-Mar-11 00:00:00.0000 TDB 
  -8.511019409890488E-04  3.111866064572602E-04  8.957280377346073E-04
   2.272791133064927E-03 -1.900965182772234E-04  2.225690833426061E-03
2451619.500000000 = A.D. 2000-Mar-16 00:00:00.0000 TDB 
  -9.393572364022730E-04  3.174208466984738E-04  8.010495514343582E-04
   2.044574755376655E-03 -1.101293930461015E-04  2.440860817839097E-03
2451624.500000000 = A.D. 2000-Mar-21 00:00:00.0000 TDB 
  -1.017520127651266E-03  3.201565266332474E-04  6.971138956947204E-04
   1.795125225226930E-03 -2.878563296016055E-05  2.632372881110158E-03
2451629.500000000 = A.D. 2000-Mar-26 00:00:00.0000 TDB 
  -1.085434730436105E-03  3.197155593363488E-04  5.865146181741100E-04
   1.527728652785448E-03  5.256307821206536E-05  2.795514929864347E-03
2451634.500000000 = A.D. 2000-Mar-31 00:00:00.0000 TDB 
  -1.141637818909392E-03  3.159078650453069E-04  4.701734343945337E-04
   1.244809401066010E-03  1.333338701578122E-04  2.929955936147660E-03
2451639.500000000 = A.D. 2000-Apr-05 00:00:00.0000 TDB 
  -1.186770919047442E-03  3.088498477927141E-04  3.479158414696601E-04
   9.473590985455722E-04  2.130808922532695E-04  3.034031461550573E-03
2451644.500000000 = A.D. 2000-Apr-10 00:00:00.0000 TDB 
  -1.218893592714740E-03  2.985450063544709E-04  2.228600151085846E-04
   6.419224003358164E-04  2.902783099880778E-04  3.107107328007242E-03
2451649.500000000 = A.D. 2000-Apr-15 00:00:00.0000 TDB 
  -1.238978736534189E-03  2.852376867141194E-04  9.519270068217112E-05
   3.282784693912415E-04  3.646582368317729E-04  3.146893218187820E-03
2451654.500000000 = A.D. 2000-Apr-20 00:00:00.0000 TDB 
  -1.245864676780430E-03  2.689322609317662E-04 -3.318482938541781E-05
   1.338739182198100E-05  4.348830829270181E-04  3.154773916589313E-03
2451659.500000000 = A.D. 2000-Apr-25 00:00:00.0000 TDB 
  -1.239735953948632E-03  2.497551276279485E-04 -1.616699457626476E-04
  -3.034932626833906E-04  5.011212620626650E-04  3.130765004741974E-03
2451664.500000000 = A.D. 2000-Apr-30 00:00:00.0000 TDB 
  -1.221363676190927E-03  2.282292761073436E-04 -2.877206825575902E-04
  -6.156137940223176E-04  5.616369605419742E-04  3.073067641293784E-03
2451669.500000000 = A.D. 2000-May-05 00:00:00.0000 TDB 
  -1.189449149665280E-03  2.039536252017095E-04 -4.121508400580549E-04
  -9.230038626863073E-04  6.167782022955123E-04  2.984125420233586E-03
2451674.500000000 = A.D. 2000-May-10 00:00:00.0000 TDB 
  -1.146284645007274E-03  1.780053074268041E-04 -5.308477358903177E-04
  -1.218942624312035E-03  6.651581675309811E-04  2.864561847299459E-03
2451679.500000000 = A.D. 2000-May-15 00:00:00.0000 TDB 
  -1.090531362330802E-03  1.500024753567262E-04 -6.444322564765462E-04
  -1.502588008205473E-03  7.067655688144973E-04  2.715664791767730E-03
2451684.500000000 = A.D. 2000-May-20 00:00:00.0000 TDB 
  -1.023782980749763E-03  1.203869824768496E-04 -7.522401978896116E-04
  -1.771409912260968E-03  7.410716959653443E-04  2.537598156467942E-03
2451689.500000000 = A.D. 2000-May-25 00:00:00.0000 TDB 
  -9.465203543359456E-04  8.972125305659586E-05 -8.509921580769825E-04
  -2.021355936121596E-03  7.678686511535428E-04  2.335278498651491E-03
2451694.500000000 = A.D. 2000-May-30 00:00:00.0000 TDB 
  -8.589233526740883E-04  5.783291525752963E-05 -9.421998407601723E-04
  -2.250327335319908E-03  7.863889670253092E-04  2.106501160491734E-03
2451699.500000000 = A.D. 2000-Jun-04 00:00:00.0000 TDB 
  -7.637592479619444E-04  2.575506028471302E-05 -1.022801598876009E-03
  -2.455182832452975E-03  7.969786593436602E-04  1.858721316437556E-03
2451704.500000000 = A.D. 2000-Jun-09 00:00:00.0000 TDB 
  -6.589930054581543E-04 -7.000638414865083E-06 -1.093105714699055E-03
  -2.636499898991067E-03  7.995044141182939E-04  1.590059148185474E-03
2451709.500000000 = A.D. 2000-Jun-14 00:00:00.0000 TDB 
  -5.490884916860903E-04 -3.934354412482334E-05 -1.152300167879059E-03
  -2.788588065898816E-03  7.934864754648213E-04  1.306078034871092E-03
2451714.500000000 = A.D. 2000-Jun-19 00:00:00.0000 TDB 
  -4.321604541512852E-04 -7.157312910245845E-05 -1.199566540530168E-03
  -2.913608856162668E-03  7.795387001812542E-04  1.007760702559227E-03
2451719.500000000 = A.D. 2000-Jun-24 00:00:00.0000 TDB 
  -3.114560519583179E-04 -1.028764063920058E-04 -1.234193513078527E-03
  -3.007211614319061E-03  7.574067096997600E-04  7.001786851043750E-04
2451724.500000000 = A.D. 2000-Jun-29 00:00:00.0000 TDB 
  -1.880936677570281E-04 -1.330577726549445E-04 -1.256513032647322E-03
  -3.070757473032133E-03  7.277436893555106E-04  3.858730971983286E-04
2451729.500000000 = A.D. 2000-Jul-04 00:00:00.0000 TDB 
  -6.148963370157757E-05 -1.621309523428969E-04 -1.265730692756118E-03
  -3.101571696724125E-03  6.901309060616993E-04  6.606308546731645E-05
2451734.500000000 = A.D. 2000-Jul-09 00:00:00.0000 TDB 
   6.460554660662217E-05 -1.892608995067631E-04 -1.261748223874549E-03
  -3.102026487254186E-03  6.459746756599449E-04 -2.528775044132760E-04
2451739.500000000 = A.D. 2000-Jul-14 00:00:00.0000 TDB 
   1.908147134003530E-04 -2.146855191292210E-04 -1.245281986343168E-03
  -3.069063489428795E-03  5.946980043133325E-04 -5.702631373711833E-04
2451744.500000000 = A.D. 2000-Jul-19 00:00:00.0000 TDB 
   3.142661502409766E-04 -2.376459238457841E-04 -1.215442333013253E-03
  -3.005301189615048E-03  5.377449192046674E-04 -8.798284142080259E-04
2451749.500000000 = A.D. 2000-Jul-24 00:00:00.0000 TDB 
   4.355268173836944E-04 -2.584315498825311E-04 -1.173376481248670E-03
  -2.911306141813343E-03  4.750615834451851E-04 -1.182864305602554E-03
